SAUDISAT 1C             
1 27607U 02058C   23052.86559489  .00001706  00000+0  25106-3 0  9993
2 27607  64.5530 258.3689 0077782 247.0874 112.2006 14.76778988 85191
SAUDISAT 2              
1 28371U 04025F   23053.46239914  .00000655  00000+0  16315-3 0  9997
2 28371  98.4146  16.2039 0026381  57.5167 302.8568 14.54763507989636
SAUDISAT 3              
1 31118U 07012B   23053.42247290  .00000624  00000+0  11315-3 0  9992
2 31118  98.0012 359.8594 0016324 117.4726 242.8141 14.69527398849864
PISAT                   
1 41784U 16059B   23053.07300021  .00001391  00000+0  27004-3 0  9990
2 41784  97.8856  91.3196 0032892  99.6091 260.8832 14.64338829342215
FLYING LAPTOP           
1 42831U 17042G   23052.86939759  .00002707  00000+0  26813-3 0  9998
2 42831  97.3985 257.5369 0012272 250.8061 109.1816 14.92553559305286
SALSAT                  
1 46495U 20068K   23052.79377534  .00006517  00000+0  44708-3 0  9995
2 46495  97.7589 359.7841 0016883 146.5512 213.6784 15.06245249131691
